[
  {
    "id": "97801-97150",
    "code": "97801",
    "libelle": "ST MARTIN",
    "code_postal": "97150",
    "code_departement": "978",
    "longitude": -63.0628159,
    "latitude": 18.0785256
  },
  {
    "id": "98721-98790",
    "code": "98721",
    "libelle": "HIKUERU",
    "code_postal": "98790",
    "code_departement": "987",
    "longitude": -142.6386467,
    "latitude": -17.5835948
  },
  {
    "id": "98721-98768",
    "code": "98721",
    "libelle": "HIKUERU",
    "code_postal": "98768",
    "code_departement": "987",
    "longitude": -142.6386467,
    "latitude": -17.5835948
  },
  {
    "id": "39439-39330",
    "code": "39439",
    "libelle": "PORT LESNEY",
    "code_postal": "39330",
    "code_departement": "39",
    "longitude": 5.789352500000001,
    "latitude": 46.9754765
  },
  {
    "id": "98723-98796",
    "code": "98723",
    "libelle": "HIVA OA",
    "code_postal": "98796",
    "code_departement": "987",
    "longitude": -139.0211225,
    "latitude": -9.7546726
  },
  {
    "id": "91479-94390",
    "code": "91479",
    "libelle": "PARAY VIEILLE POSTE",
    "code_postal": "94390",
    "code_departement": "91",
    "longitude": 2.3620519,
    "latitude": 48.7301463
  },
  {
    "id": "97502-97500",
    "code": "97502",
    "libelle": "ST PIERRE",
    "code_postal": "97500",
    "code_departement": "975",
    "longitude": -56.1806363,
    "latitude": 46.7758459
  },
  {
    "id": "98722-98708",
    "code": "98722",
    "libelle": "HITIAA O TE RA",
    "code_postal": "98708",
    "code_departement": "987",
    "longitude": -149.3629582,
    "latitude": -17.5415902
  },
  {
    "id": "98722-98707",
    "code": "98722",
    "libelle": "HITIAA O TE RA",
    "code_postal": "98707",
    "code_departement": "987",
    "longitude": -149.3629582,
    "latitude": -17.5415902
  },
  {
    "id": "98722-98706",
    "code": "98722",
    "libelle": "HITIAA O TE RA",
    "code_postal": "98706",
    "code_departement": "987",
    "longitude": -149.3629582,
    "latitude": -17.5415902
  },
  {
    "id": "98722-98705",
    "code": "98722",
    "libelle": "HITIAA O TE RA",
    "code_postal": "98705",
    "code_departement": "987",
    "longitude": -149.3629582,
    "latitude": -17.5415902
  },
  {
    "id": "77170-77250",
    "code": "77170",
    "libelle": "EPISY",
    "code_postal": "77250",
    "code_departement": "77",
    "longitude": 2.7950727,
    "latitude": 48.3300265
  },
  {
    "id": "98748-98725",
    "code": "98748",
    "libelle": "TAIARAPU OUEST",
    "code_postal": "98725",
    "code_departement": "987",
    "longitude": -149.2921202,
    "latitude": -17.8120206
  },
  {
    "id": "98748-98724",
    "code": "98748",
    "libelle": "TAIARAPU OUEST",
    "code_postal": "98724",
    "code_departement": "987",
    "longitude": -149.2921202,
    "latitude": -17.8120206
  },
  {
    "id": "98748-98723",
    "code": "98748",
    "libelle": "TAIARAPU OUEST",
    "code_postal": "98723",
    "code_departement": "987",
    "longitude": -149.2921202,
    "latitude": -17.8120206
  },
  {
    "id": "98723-98749",
    "code": "98723",
    "libelle": "HIVA OA",
    "code_postal": "98749",
    "code_departement": "987",
    "longitude": -139.0211225,
    "latitude": -9.7546726
  },
  {
    "id": "98723-98741",
    "code": "98723",
    "libelle": "HIVA OA",
    "code_postal": "98741",
    "code_departement": "987",
    "longitude": -139.0211225,
    "latitude": -9.7546726
  },
  {
    "id": "98901-98799",
    "code": "98901",
    "libelle": "ILE DE CLIPPERTON",
    "code_postal": "98799",
    "code_departement": "989",
    "longitude": -109.2177365,
    "latitude": 10.3021468
  },
  {
    "id": "99138-98000",
    "code": "99138",
    "libelle": "MONACO",
    "code_postal": "98000",
    "code_departement": "99",
    "longitude": 7.424615799999999,
    "latitude": 43.7336539
  },
  {
    "id": "77299-77250",
    "code": "77299",
    "libelle": "MONTARLOT",
    "code_postal": "77250",
    "code_departement": "77",
    "longitude": 2.8527275,
    "latitude": 48.3485703
  },
  {
    "id": "98726-98790",
    "code": "98726",
    "libelle": "MAKEMO",
    "code_postal": "98790",
    "code_departement": "987",
    "longitude": -143.8671868,
    "latitude": -16.5395622
  },
  {
    "id": "98726-98789",
    "code": "98726",
    "libelle": "MAKEMO",
    "code_postal": "98789",
    "code_departement": "987",
    "longitude": -143.8671868,
    "latitude": -16.5395622
  },
  {
    "id": "98731-98796",
    "code": "98731",
    "libelle": "NUKU HIVA",
    "code_postal": "98796",
    "code_departement": "987",
    "longitude": -140.1420882,
    "latitude": -8.8604808
  },
  {
    "id": "98726-98769",
    "code": "98726",
    "libelle": "MAKEMO",
    "code_postal": "98769",
    "code_departement": "987",
    "longitude": -143.8671868,
    "latitude": -16.5395622
  },
  {
    "id": "98731-98748",
    "code": "98731",
    "libelle": "NUKU HIVA",
    "code_postal": "98748",
    "code_departement": "987",
    "longitude": -140.1420882,
    "latitude": -8.8604808
  },
  {
    "id": "98731-98742",
    "code": "98731",
    "libelle": "NUKU HIVA",
    "code_postal": "98742",
    "code_departement": "987",
    "longitude": -140.1420882,
    "latitude": -8.8604808
  },
  {
    "id": "98750-98735",
    "code": "98750",
    "libelle": "TAPUTAPUATEA",
    "code_postal": "98735",
    "code_departement": "987",
    "longitude": -151.3584148,
    "latitude": -16.8358179
  },
  {
    "id": "98737-98774",
    "code": "98737",
    "libelle": "PUKAPUKA",
    "code_postal": "98774",
    "code_departement": "987",
    "longitude": -165.8388698,
    "latitude": -10.8499532
  },
  {
    "id": "98831-98883",
    "code": "98831",
    "libelle": "VOH",
    "code_postal": "98883",
    "code_departement": "988",
    "longitude": 164.6773976,
    "latitude": -20.9549146
  },
  {
    "id": "98831-98833",
    "code": "98831",
    "libelle": "VOH",
    "code_postal": "98833",
    "code_departement": "988",
    "longitude": -120.5665911,
    "latitude": 48.7009709
  },
  {
    "id": "98753-98754",
    "code": "98753",
    "libelle": "TUBUAI",
    "code_postal": "98754",
    "code_departement": "987",
    "longitude": -150,
    "latitude": -23
  },
  {
    "id": "98612-98620",
    "code": "98612",
    "libelle": "SIGAVE",
    "code_postal": "98620",
    "code_departement": "986",
    "longitude": -178.16329,
    "latitude": -14.2732592
  },
  {
    "id": "2B299-20213",
    "code": "2B299",
    "libelle": "SAN GAVINO D AMPUGNANI",
    "code_postal": "20213",
    "code_departement": "2B",
    "longitude": 9.4256031,
    "latitude": 42.4196617
  },
  {
    "id": "97501-97500",
    "code": "97501",
    "libelle": "MIQUELON LANGLADE",
    "code_postal": "97500",
    "code_departement": "975",
    "longitude": -56.30752810000001,
    "latitude": 46.8454114
  },
  {
    "id": "98736-98716",
    "code": "98736",
    "libelle": "PIRAE",
    "code_postal": "98716",
    "code_departement": "987",
    "longitude": -149.5484346,
    "latitude": -17.52833
  },
  {
    "id": "98820-98814",
    "code": "98820",
    "libelle": "OUVEA",
    "code_postal": "98814",
    "code_departement": "988",
    "longitude": 166.5353028,
    "latitude": -20.6543997
  },
  {
    "id": "2B297-20213",
    "code": "2B297",
    "libelle": "SAN DAMIANO",
    "code_postal": "20213",
    "code_departement": "2B",
    "longitude": 9.4144962,
    "latitude": 42.4059585
  },
  {
    "id": "98807-98815",
    "code": "98807",
    "libelle": "HIENGHENE",
    "code_postal": "98815",
    "code_departement": "988",
    "longitude": 164.9435279,
    "latitude": -20.6880978
  },
  {
    "id": "98825-98825",
    "code": "98825",
    "libelle": "POUEMBOUT",
    "code_postal": "98825",
    "code_departement": "988",
    "longitude": 164.9004158,
    "latitude": -21.1148929
  },
  {
    "id": "69299-69125",
    "code": "69299",
    "libelle": "COLOMBIER SAUGNIEU",
    "code_postal": "69125",
    "code_departement": "69",
    "longitude": 5.0852626,
    "latitude": 45.7197776
  },
  {
    "id": "97150-97130",
    "code": "97150",
    "libelle": "BANANIER",
    "code_postal": "97130",
    "code_departement": "971",
    "longitude": -61.6547226,
    "latitude": 16.0486355
  },
  {
    "id": "98801-98811",
    "code": "98801",
    "libelle": "BELEP",
    "code_postal": "98811",
    "code_departement": "988",
    "longitude": 163.6666667,
    "latitude": -19.75
  },
  {
    "id": "2B177-20242",
    "code": "2B177",
    "libelle": "NOCETA",
    "code_postal": "20242",
    "code_departement": "2B",
    "longitude": 9.209916,
    "latitude": 42.197994
  },
  {
    "id": "98754-98735",
    "code": "98754",
    "libelle": "TUMARAA",
    "code_postal": "98735",
    "code_departement": "987",
    "longitude": -151.4896742,
    "latitude": -16.7848955
  },
  {
    "id": "98757-98745",
    "code": "98757",
    "libelle": "UA POU",
    "code_postal": "98745",
    "code_departement": "987",
    "longitude": -140.0803953,
    "latitude": -9.4042642
  },
  {
    "id": "98757-98746",
    "code": "98757",
    "libelle": "UA POU",
    "code_postal": "98746",
    "code_departement": "987",
    "longitude": -140.0803953,
    "latitude": -9.4042642
  },
  {
    "id": "97301-97353",
    "code": "97301",
    "libelle": "REGINA",
    "code_postal": "97353",
    "code_departement": "973",
    "longitude": -53.0484044,
    "latitude": 4.0093241
  },
  {
    "id": "98743-98752",
    "code": "98743",
    "libelle": "RIMATARA",
    "code_postal": "98752",
    "code_departement": "987",
    "longitude": -152.8088251,
    "latitude": -22.6526965
  },
  {
    "id": "98804-98813",
    "code": "98804",
    "libelle": "CANALA",
    "code_postal": "98813",
    "code_departement": "988",
    "longitude": -119.5590063,
    "latitude": 48.027237
  },
  {
    "id": "98832-98834",
    "code": "98832",
    "libelle": "YATE",
    "code_postal": "98834",
    "code_departement": "988",
    "longitude": -120.0292008,
    "latitude": 48.1652272
  },
  {
    "id": "97101-97142",
    "code": "97101",
    "libelle": "LES ABYMES",
    "code_postal": "97142",
    "code_departement": "971",
    "longitude": -61.50319440000001,
    "latitude": 16.2691865
  },
  {
    "id": "98743-98795",
    "code": "98743",
    "libelle": "RIMATARA",
    "code_postal": "98795",
    "code_departement": "987",
    "longitude": -152.8088251,
    "latitude": -22.6526965
  },
  {
    "id": "98718-98740",
    "code": "98718",
    "libelle": "FATU HIVA",
    "code_postal": "98740",
    "code_departement": "987",
    "longitude": -138.6489134,
    "latitude": -10.4904907
  },
  {
    "id": "98830-98831",
    "code": "98830",
    "libelle": "TOUHO",
    "code_postal": "98831",
    "code_departement": "988",
    "longitude": 165.2508229,
    "latitude": -20.7914721
  },
  {
    "id": "64545-64700",
    "code": "64545",
    "libelle": "URRUGNE",
    "code_postal": "64700",
    "code_departement": "64",
    "longitude": -1.7392812,
    "latitude": 43.340423
  },
  {
    "id": "97306-97318",
    "code": "97306",
    "libelle": "MANA",
    "code_postal": "97318",
    "code_departement": "973",
    "longitude": 10.1875151,
    "latitude": 49.7451277
  },
  {
    "id": "98818-98800",
    "code": "98818",
    "libelle": "NOUMEA",
    "code_postal": "98800",
    "code_departement": "988",
    "longitude": 166.4480484,
    "latitude": -22.2735093
  },
  {
    "id": "98822-98822",
    "code": "98822",
    "libelle": "POINDIMIE",
    "code_postal": "98822",
    "code_departement": "988",
    "longitude": 165.3441329,
    "latitude": -20.9392342
  },
  {
    "id": "98747-98720",
    "code": "98747",
    "libelle": "TAIARAPU EST",
    "code_postal": "98720",
    "code_departement": "987",
    "longitude": -149.3165768,
    "latitude": -17.7316014
  },
  {
    "id": "98747-98721",
    "code": "98747",
    "libelle": "TAIARAPU EST",
    "code_postal": "98721",
    "code_departement": "987",
    "longitude": -149.3165768,
    "latitude": -17.7316014
  },
  {
    "id": "98747-98722",
    "code": "98747",
    "libelle": "TAIARAPU EST",
    "code_postal": "98722",
    "code_departement": "987",
    "longitude": -149.3165768,
    "latitude": -17.7316014
  },
  {
    "id": "98747-98719",
    "code": "98747",
    "libelle": "TAIARAPU EST",
    "code_postal": "98719",
    "code_departement": "987",
    "longitude": -149.3165768,
    "latitude": -17.7316014
  },
  {
    "id": "65059-65710",
    "code": "65059",
    "libelle": "BAGNERES DE BIGORRE",
    "code_postal": "65710",
    "code_departement": "65",
    "longitude": 0.1682271,
    "latitude": 42.9999297
  },
  {
    "id": "98824-98824",
    "code": "98824",
    "libelle": "POUEBO",
    "code_postal": "98824",
    "code_departement": "988",
    "longitude": -122.6465372,
    "latitude": 47.735928
  },
  {
    "id": "73013-73530",
    "code": "73013",
    "libelle": "ALBIEZ MONTROND",
    "code_postal": "73530",
    "code_departement": "73",
    "longitude": 6.336410799999999,
    "latitude": 45.1801989
  },
  {
    "id": "2B180-20226",
    "code": "2B180",
    "libelle": "NOVELLA",
    "code_postal": "20226",
    "code_departement": "2B",
    "longitude": 9.0712262,
    "latitude": 42.6059585
  },
  {
    "id": "98815-98878",
    "code": "98815",
    "libelle": "MARE",
    "code_postal": "98878",
    "code_departement": "988",
    "longitude": 167.8349515,
    "latitude": 21.5025026
  },
  {
    "id": "98815-98828",
    "code": "98815",
    "libelle": "MARE",
    "code_postal": "98828",
    "code_departement": "988",
    "longitude": -120.1635549,
    "latitude": 47.2935603
  },
  {
    "id": "14712-14670",
    "code": "14712",
    "libelle": "TROARN",
    "code_postal": "14670",
    "code_departement": "14",
    "longitude": -0.181947,
    "latitude": 49.1814589
  },
  {
    "id": "98805-98839",
    "code": "98805",
    "libelle": "DUMBEA",
    "code_postal": "98839",
    "code_departement": "988",
    "longitude": 166.4447397,
    "latitude": -22.1560429
  },
  {
    "id": "98805-98837",
    "code": "98805",
    "libelle": "DUMBEA",
    "code_postal": "98837",
    "code_departement": "988",
    "longitude": 166.4447397,
    "latitude": -22.1560429
  },
  {
    "id": "98805-98836",
    "code": "98805",
    "libelle": "DUMBEA",
    "code_postal": "98836",
    "code_departement": "988",
    "longitude": 166.4447397,
    "latitude": -22.1560429
  },
  {
    "id": "98805-98830",
    "code": "98805",
    "libelle": "DUMBEA",
    "code_postal": "98830",
    "code_departement": "988",
    "longitude": 166.4447397,
    "latitude": -22.1560429
  },
  {
    "id": "98805-98835",
    "code": "98805",
    "libelle": "DUMBEA",
    "code_postal": "98835",
    "code_departement": "988",
    "longitude": 166.4447397,
    "latitude": -22.1560429
  },
  {
    "id": "98814-98884",
    "code": "98814",
    "libelle": "LIFOU",
    "code_postal": "98884",
    "code_departement": "988",
    "longitude": 167.2405153,
    "latitude": -20.9448472
  },
  {
    "id": "98814-98885",
    "code": "98814",
    "libelle": "LIFOU",
    "code_postal": "98885",
    "code_departement": "988",
    "longitude": 167.2405153,
    "latitude": -20.9448472
  },
  {
    "id": "98814-98820",
    "code": "98814",
    "libelle": "LIFOU",
    "code_postal": "98820",
    "code_departement": "988",
    "longitude": 167.2405153,
    "latitude": -20.9448472
  },
  {
    "id": "98739-98750",
    "code": "98739",
    "libelle": "RAIVAVAE",
    "code_postal": "98750",
    "code_departement": "987",
    "longitude": -147.6609064,
    "latitude": -23.8649845
  },
  {
    "id": "98809-98832",
    "code": "98809",
    "libelle": "L ILE DES PINS",
    "code_postal": "98832",
    "code_departement": "988",
    "longitude": 167.4242972,
    "latitude": -22.5518329
  },
  {
    "id": "98728-98732",
    "code": "98728",
    "libelle": "MAUPITI",
    "code_postal": "98732",
    "code_departement": "987",
    "longitude": -152.2597306,
    "latitude": -16.4440095
  },
  {
    "id": "98756-98744",
    "code": "98756",
    "libelle": "UA HUKA",
    "code_postal": "98744",
    "code_departement": "987",
    "longitude": -139.5483671,
    "latitude": -8.9077726
  },
  {
    "id": "98756-98747",
    "code": "98756",
    "libelle": "UA HUKA",
    "code_postal": "98747",
    "code_departement": "987",
    "longitude": -139.5483671,
    "latitude": -8.9077726
  },
  {
    "id": "98752-98726",
    "code": "98752",
    "libelle": "TEVA I UTA",
    "code_postal": "98726",
    "code_departement": "987",
    "longitude": -149.4009075,
    "latitude": -17.764468
  },
  {
    "id": "98752-98727",
    "code": "98752",
    "libelle": "TEVA I UTA",
    "code_postal": "98727",
    "code_departement": "987",
    "longitude": -149.4009075,
    "latitude": -17.764468
  },
  {
    "id": "98725-98709",
    "code": "98725",
    "libelle": "MAHINA",
    "code_postal": "98709",
    "code_departement": "987",
    "longitude": -149.5102979,
    "latitude": -17.5573936
  },
  {
    "id": "98725-98710",
    "code": "98725",
    "libelle": "MAHINA",
    "code_postal": "98710",
    "code_departement": "987",
    "longitude": -149.5102979,
    "latitude": -17.5573936
  },
  {
    "id": "98802-98812",
    "code": "98802",
    "libelle": "BOULOUPARI",
    "code_postal": "98812",
    "code_departement": "988",
    "longitude": 166.0565965,
    "latitude": -21.8603599
  },
  {
    "id": "2B083-20236",
    "code": "2B083",
    "libelle": "CASTIRLA",
    "code_postal": "20236",
    "code_departement": "2B",
    "longitude": 9.144295,
    "latitude": 42.373295
  },
  {
    "id": "98749-98781",
    "code": "98749",
    "libelle": "TAKAROA",
    "code_postal": "98781",
    "code_departement": "987",
    "longitude": -144.9721978,
    "latitude": -14.4497553
  },
  {
    "id": "98749-98782",
    "code": "98749",
    "libelle": "TAKAROA",
    "code_postal": "98782",
    "code_departement": "987",
    "longitude": -144.9721978,
    "latitude": -14.4497553
  },
  {
    "id": "98749-98790",
    "code": "98749",
    "libelle": "TAKAROA",
    "code_postal": "98790",
    "code_departement": "987",
    "longitude": -144.9721978,
    "latitude": -14.4497553
  },
  {
    "id": "98716-98764",
    "code": "98716",
    "libelle": "FAKARAVA",
    "code_postal": "98764",
    "code_departement": "987",
    "longitude": -145.6245586,
    "latitude": -16.3103178
  },
  {
    "id": "98716-98763",
    "code": "98716",
    "libelle": "FAKARAVA",
    "code_postal": "98763",
    "code_departement": "987",
    "longitude": -145.6245586,
    "latitude": -16.3103178
  },
  {
    "id": "98716-98790",
    "code": "98716",
    "libelle": "FAKARAVA",
    "code_postal": "98790",
    "code_departement": "987",
    "longitude": -145.6245586,
    "latitude": -16.3103178
  },
  {
    "id": "98716-98787",
    "code": "98716",
    "libelle": "FAKARAVA",
    "code_postal": "98787",
    "code_departement": "987",
    "longitude": -145.6245586,
    "latitude": -16.3103178
  },
  {
    "id": "98803-98870",
    "code": "98803",
    "libelle": "BOURAIL",
    "code_postal": "98870",
    "code_departement": "988",
    "longitude": 165.4985521,
    "latitude": -21.5669347
  },
  {
    "id": "98811-98860",
    "code": "98811",
    "libelle": "KONE",
    "code_postal": "98860",
    "code_departement": "988",
    "longitude": 164.8394678,
    "latitude": -21.0589892
  },
  {
    "id": "98811-98859",
    "code": "98811",
    "libelle": "KONE",
    "code_postal": "98859",
    "code_departement": "988",
    "longitude": -118.9145826,
    "latitude": 48.8167115
  },
  {
    "id": "98720-98790",
    "code": "98720",
    "libelle": "HAO",
    "code_postal": "98790",
    "code_departement": "987",
    "longitude": -143.8137785,
    "latitude": -18.7631398
  },
  {
    "id": "98720-98767",
    "code": "98720",
    "libelle": "HAO",
    "code_postal": "98767",
    "code_departement": "987",
    "longitude": -143.8137785,
    "latitude": -18.7631398
  },
  {
    "id": "98758-98735",
    "code": "98758",
    "libelle": "UTUROA",
    "code_postal": "98735",
    "code_departement": "987",
    "longitude": -151.4449665,
    "latitude": -16.7287218
  },
  {
    "id": "98812-98850",
    "code": "98812",
    "libelle": "KOUMAC",
    "code_postal": "98850",
    "code_departement": "988",
    "longitude": 164.2707509,
    "latitude": -20.549448
  },
  {
    "id": "98829-98829",
    "code": "98829",
    "libelle": "THIO",
    "code_postal": "98829",
    "code_departement": "988",
    "longitude": -119.7089136,
    "latitude": 48.2879677
  },
  {
    "id": "97701-97133",
    "code": "97701",
    "libelle": "ST BARTHELEMY",
    "code_postal": "97133",
    "code_departement": "977",
    "longitude": -62.8294264,
    "latitude": 17.9017005
  },
  {
    "id": "34277-34190",
    "code": "34277",
    "libelle": "ST MAURICE NAVACELLES",
    "code_postal": "34190",
    "code_departement": "34",
    "longitude": 3.518559,
    "latitude": 43.84658899999999
  },
  {
    "id": "98746-98743",
    "code": "98746",
    "libelle": "TAHUATA",
    "code_postal": "98743",
    "code_departement": "987",
    "longitude": -139.0918169,
    "latitude": -9.9516738
  },
  {
    "id": "2B314-20217",
    "code": "2B314",
    "libelle": "SANTO PIETRO DI TENDA",
    "code_postal": "20217",
    "code_departement": "2B",
    "longitude": 9.258417,
    "latitude": 42.60534699999999
  },
  {
    "id": "98751-98783",
    "code": "98751",
    "libelle": "TATAKOTO",
    "code_postal": "98783",
    "code_departement": "987",
    "longitude": -138.3938283,
    "latitude": -17.3379381
  },
  {
    "id": "98833-98818",
    "code": "98833",
    "libelle": "KOUAOUA",
    "code_postal": "98818",
    "code_departement": "988",
    "longitude": 165.8272482,
    "latitude": -21.3945505
  },
  {
    "id": "98724-98732",
    "code": "98724",
    "libelle": "HUAHINE",
    "code_postal": "98732",
    "code_departement": "987",
    "longitude": -150.9889238,
    "latitude": -16.7882653
  },
  {
    "id": "98724-98731",
    "code": "98724",
    "libelle": "HUAHINE",
    "code_postal": "98731",
    "code_departement": "987",
    "longitude": -150.9889238,
    "latitude": -16.7882653
  },
  {
    "id": "2B261-20248",
    "code": "2B261",
    "libelle": "ROGLIANO",
    "code_postal": "20248",
    "code_departement": "2B",
    "longitude": 16.3817021,
    "latitude": 39.1721561
  },
  {
    "id": "01313-01630",
    "code": "01313",
    "libelle": "PREVESSIN MOENS",
    "code_postal": "01630",
    "code_departement": "01",
    "longitude": 6.0679661,
    "latitude": 46.2544962
  },
  {
    "id": "98755-98784",
    "code": "98755",
    "libelle": "TUREIA",
    "code_postal": "98784",
    "code_departement": "987",
    "longitude": -138.5382452,
    "latitude": -20.8213987
  },
  {
    "id": "74236-74190",
    "code": "74236",
    "libelle": "ST GERVAIS LES BAINS",
    "code_postal": "74190",
    "code_departement": "74",
    "longitude": 6.677223000000001,
    "latitude": 45.9473788
  },
  {
    "id": "98715-98704",
    "code": "98715",
    "libelle": "FAAA",
    "code_postal": "98704",
    "code_departement": "987",
    "longitude": -149.5987108,
    "latitude": -17.5840152
  },
  {
    "id": "98733-98711",
    "code": "98733",
    "libelle": "PAEA",
    "code_postal": "98711",
    "code_departement": "987",
    "longitude": -77.02087639999999,
    "latitude": 38.9027562
  },
  {
    "id": "98713-98761",
    "code": "98713",
    "libelle": "ARUTUA",
    "code_postal": "98761",
    "code_departement": "987",
    "longitude": -146.786149,
    "latitude": -15.2899056
  },
  {
    "id": "98713-98762",
    "code": "98713",
    "libelle": "ARUTUA",
    "code_postal": "98762",
    "code_departement": "987",
    "longitude": -146.786149,
    "latitude": -15.2899056
  },
  {
    "id": "98713-98785",
    "code": "98713",
    "libelle": "ARUTUA",
    "code_postal": "98785",
    "code_departement": "987",
    "longitude": -146.786149,
    "latitude": -15.2899056
  },
  {
    "id": "98806-98881",
    "code": "98806",
    "libelle": "FARINO",
    "code_postal": "98881",
    "code_departement": "988",
    "longitude": 165.7713746,
    "latitude": -21.6669104
  },
  {
    "id": "98826-98826",
    "code": "98826",
    "libelle": "POUM",
    "code_postal": "98826",
    "code_departement": "988",
    "longitude": -120.9263261,
    "latitude": 47.7827941
  },
  {
    "id": "18215-18350",
    "code": "18215",
    "libelle": "ST HILAIRE DE GONDILLY",
    "code_postal": "18350",
    "code_departement": "18",
    "longitude": 2.885497,
    "latitude": 47.04929600000001
  },
  {
    "id": "98730-98772",
    "code": "98730",
    "libelle": "NAPUKA",
    "code_postal": "98772",
    "code_departement": "987",
    "longitude": -141.2315907,
    "latitude": -14.1701291
  },
  {
    "id": "75116-75116",
    "code": "75116",
    "libelle": "PARIS 16",
    "code_postal": "75116",
    "code_departement": "75",
    "longitude": 2.272776,
    "latitude": 48.8727631
  },
  {
    "id": "98741-98794",
    "code": "98741",
    "libelle": "RAPA",
    "code_postal": "98794",
    "code_departement": "987",
    "longitude": -144.3780975,
    "latitude": -27.6082255
  },
  {
    "id": "98741-98751",
    "code": "98741",
    "libelle": "RAPA",
    "code_postal": "98751",
    "code_departement": "987",
    "longitude": -144.3780975,
    "latitude": -27.6082255
  },
  {
    "id": "98732-98773",
    "code": "98732",
    "libelle": "NUKUTAVAKE",
    "code_postal": "98773",
    "code_departement": "987",
    "longitude": -138.7768965,
    "latitude": -19.2808074
  },
  {
    "id": "98732-98788",
    "code": "98732",
    "libelle": "NUKUTAVAKE",
    "code_postal": "98788",
    "code_departement": "987",
    "longitude": -138.7768965,
    "latitude": -19.2808074
  },
  {
    "id": "98735-98714",
    "code": "98735",
    "libelle": "PAPEETE",
    "code_postal": "98714",
    "code_departement": "987",
    "longitude": -149.5677151,
    "latitude": -17.5324608
  },
  {
    "id": "98828-98882",
    "code": "98828",
    "libelle": "SARRAMEA",
    "code_postal": "98882",
    "code_departement": "988",
    "longitude": 165.8446802,
    "latitude": -21.6409002
  },
  {
    "id": "98745-98733",
    "code": "98745",
    "libelle": "TAHAA",
    "code_postal": "98733",
    "code_departement": "987",
    "longitude": -151.5019256,
    "latitude": -16.6094815
  },
  {
    "id": "98745-98734",
    "code": "98745",
    "libelle": "TAHAA",
    "code_postal": "98734",
    "code_departement": "987",
    "longitude": -151.5019256,
    "latitude": -16.6094815
  },
  {
    "id": "98813-98880",
    "code": "98813",
    "libelle": "LA FOA",
    "code_postal": "98880",
    "code_departement": "988",
    "longitude": 165.8272482,
    "latitude": -21.7093496
  },
  {
    "id": "98611-98610",
    "code": "98611",
    "libelle": "ALO",
    "code_postal": "98610",
    "code_departement": "986",
    "longitude": -121.8347401,
    "latitude": 45.8354205
  },
  {
    "id": "60048-60190",
    "code": "60048",
    "libelle": "BAUGY",
    "code_postal": "60190",
    "code_departement": "60",
    "longitude": 2.750712,
    "latitude": 49.463434
  },
  {
    "id": "98821-98889",
    "code": "98821",
    "libelle": "PAITA",
    "code_postal": "98889",
    "code_departement": "988",
    "longitude": -81.0962172,
    "latitude": -5.0938488
  },
  {
    "id": "98821-98890",
    "code": "98821",
    "libelle": "PAITA",
    "code_postal": "98890",
    "code_departement": "988",
    "longitude": -81.0962172,
    "latitude": -5.0938488
  },
  {
    "id": "98729-98729",
    "code": "98729",
    "libelle": "MOOREA MAIAO",
    "code_postal": "98729",
    "code_departement": "987",
    "longitude": -149.8124409,
    "latitude": -17.5449039
  },
  {
    "id": "98729-98728",
    "code": "98729",
    "libelle": "MOOREA MAIAO",
    "code_postal": "98728",
    "code_departement": "987",
    "longitude": -149.8124409,
    "latitude": -17.5449039
  },
  {
    "id": "98821-98840",
    "code": "98821",
    "libelle": "PAITA",
    "code_postal": "98840",
    "code_departement": "988",
    "longitude": -81.0962172,
    "latitude": -5.0938488
  },
  {
    "id": "97611-97605",
    "code": "97611",
    "libelle": "MAMOUDZOU",
    "code_postal": "97605",
    "code_departement": "976",
    "longitude": 45.227872,
    "latitude": -12.7809488
  },
  {
    "id": "98827-98827",
    "code": "98827",
    "libelle": "POYA",
    "code_postal": "98827",
    "code_departement": "988",
    "longitude": 165.1562691,
    "latitude": -21.3483328
  },
  {
    "id": "98827-98877",
    "code": "98827",
    "libelle": "POYA",
    "code_postal": "98877",
    "code_departement": "988",
    "longitude": 165.1562691,
    "latitude": -21.3483328
  },
  {
    "id": "98742-98780",
    "code": "98742",
    "libelle": "REAO",
    "code_postal": "98780",
    "code_departement": "987",
    "longitude": -136.3336857,
    "latitude": -18.5549107
  },
  {
    "id": "98742-98779",
    "code": "98742",
    "libelle": "REAO",
    "code_postal": "98779",
    "code_departement": "987",
    "longitude": -136.3336857,
    "latitude": -18.5549107
  },
  {
    "id": "98719-98792",
    "code": "98719",
    "libelle": "GAMBIER",
    "code_postal": "98792",
    "code_departement": "987",
    "longitude": -82.3971038,
    "latitude": 40.3756194
  },
  {
    "id": "98719-98793",
    "code": "98719",
    "libelle": "GAMBIER",
    "code_postal": "98793",
    "code_departement": "987",
    "longitude": -82.3971038,
    "latitude": 40.3756194
  },
  {
    "id": "98719-98755",
    "code": "98719",
    "libelle": "GAMBIER",
    "code_postal": "98755",
    "code_departement": "987",
    "longitude": -82.3971038,
    "latitude": 40.3756194
  },
  {
    "id": "98816-98819",
    "code": "98816",
    "libelle": "MOINDOU",
    "code_postal": "98819",
    "code_departement": "988",
    "longitude": 165.676082,
    "latitude": -21.6903337
  },
  {
    "id": "97154-97125",
    "code": "97154",
    "libelle": "PIGEON",
    "code_postal": "97125",
    "code_departement": "971",
    "longitude": -123.2115262,
    "latitude": 45.6659476
  },
  {
    "id": "98711-98760",
    "code": "98711",
    "libelle": "ANAA",
    "code_postal": "98760",
    "code_departement": "987",
    "longitude": -145.5680795,
    "latitude": -17.4121632
  },
  {
    "id": "98711-98790",
    "code": "98711",
    "libelle": "ANAA",
    "code_postal": "98790",
    "code_departement": "987",
    "longitude": -145.5680795,
    "latitude": -17.4121632
  },
  {
    "id": "98711-98786",
    "code": "98711",
    "libelle": "ANAA",
    "code_postal": "98786",
    "code_departement": "987",
    "longitude": -145.5680795,
    "latitude": -17.4121632
  },
  {
    "id": "98712-98701",
    "code": "98712",
    "libelle": "ARUE",
    "code_postal": "98701",
    "code_departement": "987",
    "longitude": -149.5362538,
    "latitude": -17.5262805
  },
  {
    "id": "98727-98771",
    "code": "98727",
    "libelle": "MANIHI",
    "code_postal": "98771",
    "code_departement": "987",
    "longitude": -145.958135,
    "latitude": -14.4028975
  },
  {
    "id": "98727-98770",
    "code": "98727",
    "libelle": "MANIHI",
    "code_postal": "98770",
    "code_departement": "987",
    "longitude": -145.958135,
    "latitude": -14.4028975
  },
  {
    "id": "98740-98776",
    "code": "98740",
    "libelle": "RANGIROA",
    "code_postal": "98776",
    "code_departement": "987",
    "longitude": -147.6513015,
    "latitude": -15.1162282
  },
  {
    "id": "98740-98777",
    "code": "98740",
    "libelle": "RANGIROA",
    "code_postal": "98777",
    "code_departement": "987",
    "longitude": -147.6513015,
    "latitude": -15.1162282
  },
  {
    "id": "98740-98775",
    "code": "98740",
    "libelle": "RANGIROA",
    "code_postal": "98775",
    "code_departement": "987",
    "longitude": -147.6513015,
    "latitude": -15.1162282
  },
  {
    "id": "98740-98778",
    "code": "98740",
    "libelle": "RANGIROA",
    "code_postal": "98778",
    "code_departement": "987",
    "longitude": -147.6513015,
    "latitude": -15.1162282
  },
  {
    "id": "98740-98790",
    "code": "98740",
    "libelle": "RANGIROA",
    "code_postal": "98790",
    "code_departement": "987",
    "longitude": -147.6513015,
    "latitude": -15.1162282
  },
  {
    "id": "98714-98730",
    "code": "98714",
    "libelle": "BORA BORA",
    "code_postal": "98730",
    "code_departement": "987",
    "longitude": -151.7414904,
    "latitude": -16.5004126
  },
  {
    "id": "07198-07800",
    "code": "07198",
    "libelle": "ROMPON",
    "code_postal": "07800",
    "code_departement": "07",
    "longitude": 4.7174062,
    "latitude": 44.7813992
  },
  {
    "id": "98738-98703",
    "code": "98738",
    "libelle": "PUNAAUIA",
    "code_postal": "98703",
    "code_departement": "987",
    "longitude": -149.6123987,
    "latitude": -17.5936654
  },
  {
    "id": "98738-98718",
    "code": "98738",
    "libelle": "PUNAAUIA",
    "code_postal": "98718",
    "code_departement": "987",
    "longitude": -149.6123987,
    "latitude": -17.5936654
  },
  {
    "id": "98734-98712",
    "code": "98734",
    "libelle": "PAPARA",
    "code_postal": "98712",
    "code_departement": "987",
    "longitude": -149.5430475,
    "latitude": -17.7118086
  },
  {
    "id": "98808-98816",
    "code": "98808",
    "libelle": "HOUAILOU",
    "code_postal": "98816",
    "code_departement": "988",
    "longitude": 165.6353564,
    "latitude": -21.278946
  },
  {
    "id": "98808-98838",
    "code": "98808",
    "libelle": "HOUAILOU",
    "code_postal": "98838",
    "code_departement": "988",
    "longitude": 165.6353564,
    "latitude": -21.278946
  },
  {
    "id": "98613-98600",
    "code": "98613",
    "libelle": "UVEA",
    "code_postal": "98600",
    "code_departement": "986",
    "longitude": -176.2035545,
    "latitude": -13.2861393
  },
  {
    "id": "98744-98753",
    "code": "98744",
    "libelle": "RURUTU",
    "code_postal": "98753",
    "code_departement": "987",
    "longitude": -151.3385191,
    "latitude": -22.480133
  },
  {
    "id": "98819-98821",
    "code": "98819",
    "libelle": "OUEGOA",
    "code_postal": "98821",
    "code_departement": "988",
    "longitude": 164.4320448,
    "latitude": -20.3469046
  },
  {
    "id": "98810-98817",
    "code": "98810",
    "libelle": "KAALA GOMEN",
    "code_postal": "98817",
    "code_departement": "988",
    "longitude": 164.3968658,
    "latitude": -20.6683332
  },
  {
    "id": "97310-97352",
    "code": "97310",
    "libelle": "ROURA",
    "code_postal": "97352",
    "code_departement": "973",
    "longitude": -123.0317481,
    "latitude": 44.7549352
  },
  {
    "id": "98817-98810",
    "code": "98817",
    "libelle": "LE MONT DORE",
    "code_postal": "98810",
    "code_departement": "988",
    "longitude": 2.809278,
    "latitude": 45.574983
  },
  {
    "id": "98817-98809",
    "code": "98817",
    "libelle": "LE MONT DORE",
    "code_postal": "98809",
    "code_departement": "988",
    "longitude": 2.809278,
    "latitude": 45.574983
  },
  {
    "id": "98817-98874",
    "code": "98817",
    "libelle": "LE MONT DORE",
    "code_postal": "98874",
    "code_departement": "988",
    "longitude": 2.809278,
    "latitude": 45.574983
  },
  {
    "id": "98817-98875",
    "code": "98817",
    "libelle": "LE MONT DORE",
    "code_postal": "98875",
    "code_departement": "988",
    "longitude": 2.809278,
    "latitude": 45.574983
  },
  {
    "id": "98817-98876",
    "code": "98817",
    "libelle": "LE MONT DORE",
    "code_postal": "98876",
    "code_departement": "988",
    "longitude": 2.809278,
    "latitude": 45.574983
  },
  {
    "id": "98823-98823",
    "code": "98823",
    "libelle": "PONERIHOUEN",
    "code_postal": "98823",
    "code_departement": "988",
    "longitude": 165.4024228,
    "latitude": -21.0781715
  },
  {
    "id": "98717-98765",
    "code": "98717",
    "libelle": "FANGATAU",
    "code_postal": "98765",
    "code_departement": "987",
    "longitude": -140.8612413,
    "latitude": -15.8253205
  },
  {
    "id": "98717-98766",
    "code": "98717",
    "libelle": "FANGATAU",
    "code_postal": "98766",
    "code_departement": "987",
    "longitude": -140.8612413,
    "latitude": -15.8253205
  }
]
